{
  "type": "FeatureCollection",
  "features": [
    {
      "type": "Feature",
      "properties": {
        "norad_id": 34492,
        "name": "IRIDIUM 33 DEB",
        "group": "iridium-33-debris",
        "lat": -12.30514828213594,
        "lon": 154.01704677377506,
        "alt_km": 698.1011126280064,
        "timestamp": "2025-12-16T03:53:27.440412+00:00",
        "meta_object_name": "IRIDIUM 33 DEB",
        "meta_object_id": "1997-051GH",
        "meta_epoch": "2025-12-14T05:35:02.651712",
        "meta_mean_motion": 14.25773186,
        "meta_eccentricity": 0.01889467,
        "meta_inclination": 86.4719,
        "meta_ra_of_asc_node": 334.0254,
        "meta_arg_of_pericenter": 233.3245,
        "meta_mean_anomaly": 142.6912,
        "meta_ephemeris_type": 0,
        "meta_classification_type": "U",
        "meta_norad_cat_id": 34492,
        "meta_element_set_no": 999,
        "meta_rev_at_epoch": 85080,
        "meta_bstar": 0.00441868,
        "meta_mean_motion_dot": 0.00012689,
        "meta_mean_motion_ddot": 0,
        "tle_line1": "1 34492U 97051GH  25348.23266958  .00012689  00000+0  44187-2 0  9998",
        "tle_line2": "2 34492  86.4719 334.0254 0188946 233.3245 142.6912 14.25773186850808"
      },
      "geometry": {
        "type": "Point",
        "coordinates": [
          154.01704677377506,
          -12.30514828213594
        ]
      }
    },
    {
      "type": "Feature",
      "properties": {
        "norad_id": 34497,
        "name": "IRIDIUM 33 DEB",
        "group": "iridium-33-debris",
        "lat": 85.0609494844853,
        "lon": -177.9359565930557,
        "alt_km": 824.6296730114545,
        "timestamp": "2025-12-16T03:53:27.440423+00:00",
        "meta_object_name": "IRIDIUM 33 DEB",
        "meta_object_id": "1997-051GN",
        "meta_epoch": "2025-12-15T04:02:13.460640",
        "meta_mean_motion": 14.27461536,
        "meta_eccentricity": 0.00785278,
        "meta_inclination": 86.2779,
        "meta_ra_of_asc_node": 51.3639,
        "meta_arg_of_pericenter": 331.6581,
        "meta_mean_anomaly": 56.4646,
        "meta_ephemeris_type": 0,
        "meta_classification_type": "U",
        "meta_norad_cat_id": 34497,
        "meta_element_set_no": 999,
        "meta_rev_at_epoch": 86918,
        "meta_bstar": 0.00050796249,
        "meta_mean_motion_dot": 1.306e-05,
        "meta_mean_motion_ddot": 0,
        "tle_line1": "1 34497U 97051GN  25349.16821135  .00001306  00000+0  50796-3 0  9998",
        "tle_line2": "2 34497  86.2779  51.3639 0078527 331.6581  56.4646 14.27461536869183"
      },
      "geometry": {
        "type": "Point",
        "coordinates": [
          -177.9359565930557,
          85.0609494844853
        ]
      }
    },
    {
      "type": "Feature",
      "properties": {
        "norad_id": 34508,
        "name": "IRIDIUM 33 DEB",
        "group": "iridium-33-debris",
        "lat": 24.985986663927996,
        "lon": 102.88757646738419,
        "alt_km": 797.2928628406962,
        "timestamp": "2025-12-16T03:53:27.440433+00:00",
        "meta_object_name": "IRIDIUM 33 DEB",
        "meta_object_id": "1997-051GZ",
        "meta_epoch": "2025-12-15T07:44:21.164352",
        "meta_mean_motion": 14.3845066,
        "meta_eccentricity": 0.00663138,
        "meta_inclination": 86.3701,
        "meta_ra_of_asc_node": 101.5484,
        "meta_arg_of_pericenter": 164.6268,
        "meta_mean_anomaly": 195.6966,
        "meta_ephemeris_type": 0,
        "meta_classification_type": "U",
        "meta_norad_cat_id": 34508,
        "meta_element_set_no": 999,
        "meta_rev_at_epoch": 87346,
        "meta_bstar": 0.0009626791,
        "meta_mean_motion_dot": 3.033e-05,
        "meta_mean_motion_ddot": 0,
        "tle_line1": "1 34508U 97051GZ  25349.32246718  .00003033  00000+0  96268-3 0  9990",
        "tle_line2": "2 34508  86.3701 101.5484 0066313 164.6268 195.6966 14.38450660873469"
      },
      "geometry": {
        "type": "Point",
        "coordinates": [
          102.88757646738419,
          24.985986663927996
        ]
      }
    },
    {
      "type": "Feature",
      "properties": {
        "norad_id": 34521,
        "name": "IRIDIUM 33 DEB",
        "group": "iridium-33-debris",
        "lat": 29.588116098604004,
        "lon": -153.01793437038046,
        "alt_km": 679.9829969599987,
        "timestamp": "2025-12-16T03:53:27.440444+00:00",
        "meta_object_name": "IRIDIUM 33 DEB",
        "meta_object_id": "1997-051HN",
        "meta_epoch": "2025-12-15T09:09:16.292448",
        "meta_mean_motion": 14.63392326,
        "meta_eccentricity": 0.00018712,
        "meta_inclination": 86.3802,
        "meta_ra_of_asc_node": 29.3855,
        "meta_arg_of_pericenter": 201.0271,
        "meta_mean_anomaly": 159.0864,
        "meta_ephemeris_type": 0,
        "meta_classification_type": "U",
        "meta_norad_cat_id": 34521,
        "meta_element_set_no": 999,
        "meta_rev_at_epoch": 88511,
        "meta_bstar": 0.00059300813,
        "meta_mean_motion_dot": 3.086e-05,
        "meta_mean_motion_ddot": 0,
        "tle_line1": "1 34521U 97051HN  25349.38143857  .00003086  00000+0  59301-3 0  9996",
        "tle_line2": "2 34521  86.3802  29.3855 0001871 201.0271 159.0864 14.63392326885111"
      },
      "geometry": {
        "type": "Point",
        "coordinates": [
          -153.01793437038046,
          29.588116098604004
        ]
      }
    },
    {
      "type": "Feature",
      "properties": {
        "norad_id": 34525,
        "name": "IRIDIUM 33 DEB",
        "group": "iridium-33-debris",
        "lat": 76.86680443468468,
        "lon": 61.15888799590842,
        "alt_km": 737.0847750697139,
        "timestamp": "2025-12-16T03:53:27.440454+00:00",
        "meta_object_name": "IRIDIUM 33 DEB",
        "meta_object_id": "1997-051HS",
        "meta_epoch": "2025-12-15T04:28:59.630592",
        "meta_mean_motion": 14.42911437,
        "meta_eccentricity": 0.00066073,
        "meta_inclination": 86.3728,
        "meta_ra_of_asc_node": 45.7994,
        "meta_arg_of_pericenter": 89.4716,
        "meta_mean_anomaly": 324.8651,
        "meta_ephemeris_type": 0,
        "meta_classification_type": "U",
        "meta_norad_cat_id": 34525,
        "meta_element_set_no": 999,
        "meta_rev_at_epoch": 88123,
        "meta_bstar": 0.00037118065,
        "meta_mean_motion_dot": 1.26e-05,
        "meta_mean_motion_ddot": 0,
        "tle_line1": "1 34525U 97051HS  25349.18680128  .00001260  00000+0  37118-3 0  9999",
        "tle_line2": "2 34525  86.3728  45.7994 0006607  89.4716 324.8651 14.42911437881234"
      },
      "geometry": {
        "type": "Point",
        "coordinates": [
          61.15888799590842,
          76.86680443468468
        ]
      }
    },
    {
      "type": "Feature",
      "properties": {
        "norad_id": 34529,
        "name": "IRIDIUM 33 DEB",
        "group": "iridium-33-debris",
        "lat": -55.86624842628112,
        "lon": 28.570960513206128,
        "alt_km": 766.3069334223992,
        "timestamp": "2025-12-16T03:53:27.440465+00:00",
        "meta_object_name": "IRIDIUM 33 DEB",
        "meta_object_id": "1997-051HW",
        "meta_epoch": "2025-12-15T03:08:44.604384",
        "meta_mean_motion": 14.40617592,
        "meta_eccentricity": 0.0005103,
        "meta_inclination": 86.364,
        "meta_ra_of_asc_node": 34.3925,
        "meta_arg_of_pericenter": 169.3864,
        "meta_mean_anomaly": 190.7444,
        "meta_ephemeris_type": 0,
        "meta_classification_type": "U",
        "meta_norad_cat_id": 34529,
        "meta_element_set_no": 999,
        "meta_rev_at_epoch": 88176,
        "meta_bstar": 0.0001148178,
        "meta_mean_motion_dot": 3.86e-06,
        "meta_mean_motion_ddot": 0,
        "tle_line1": "1 34529U 97051HW  25349.13107181  .00000386  00000+0  11482-3 0  9995",
        "tle_line2": "2 34529  86.3640  34.3925 0005103 169.3864 190.7444 14.40617592881762"
      },
      "geometry": {
        "type": "Point",
        "coordinates": [
          28.570960513206128,
          -55.86624842628112
        ]
      }
    },
    {
      "type": "Feature",
      "properties": {
        "norad_id": 34538,
        "name": "IRIDIUM 33 DEB",
        "group": "iridium-33-debris",
        "lat": 13.819441587230306,
        "lon": -176.85997338649884,
        "alt_km": 770.9874573112238,
        "timestamp": "2025-12-16T03:53:27.440475+00:00",
        "meta_object_name": "IRIDIUM 33 DEB",
        "meta_object_id": "1997-051JF",
        "meta_epoch": "2025-12-15T02:29:33.974016",
        "meta_mean_motion": 14.42663617,
        "meta_eccentricity": 0.00326013,
        "meta_inclination": 86.2774,
        "meta_ra_of_asc_node": 4.5209,
        "meta_arg_of_pericenter": 319.9523,
        "meta_mean_anomaly": 113.6008,
        "meta_ephemeris_type": 0,
        "meta_classification_type": "U",
        "meta_norad_cat_id": 34538,
        "meta_element_set_no": 999,
        "meta_rev_at_epoch": 87790,
        "meta_bstar": 0.00070844828,
        "meta_mean_motion_dot": 2.389e-05,
        "meta_mean_motion_ddot": 0,
        "tle_line1": "1 34538U 97051JF  25349.10386544  .00002389  00000+0  70845-3 0  9997",
        "tle_line2": "2 34538  86.2774   4.5209 0032601 319.9523 113.6008 14.42663617877903"
      },
      "geometry": {
        "type": "Point",
        "coordinates": [
          -176.85997338649884,
          13.819441587230306
        ]
      }
    }
  ]
}